start=new Date('2022-03-18T00:00:00.000Z').valueOf();
sats=[{"SITE":"AFETR","MEAN_MOTION_DDOT":"0.0000000000000","OBJECT_NAME":"STARLINK-1400","COUNTRY_CODE":"US","RA_OF_ASC_NODE":"80.1762","ARG_OF_PERICENTER":"75.0222","FILE":"3363104","MEAN_ANOMALY":"285.0926","ECCENTRICITY":"0.00014430","BSTAR":"0.00004382700000","PERIAPSIS":"546.268","MEAN_MOTION_DOT":"0.00000371","EPOCH":"2022-03-17T12:21:46.151136","GP_ID":"198964313","REV_AT_EPOCH":"10012","PERIOD":"95.593","EPHEMERIS_TYPE":"0","SEMIMAJOR_AXIS":"6925.402","NORAD_CAT_ID":"45700","APOAPSIS":"548.267","MEAN_ELEMENT_THEORY":"SGP4","CLASSIFICATION_TYPE":"U","OBJECT_ID":"2020-035AV","DECAY_DATE":null,"CENTER_NAME":"EARTH","OBJECT_TYPE":"PAYLOAD","TIME_SYSTEM":"UTC","RCS_SIZE":"LARGE","TLE_LINE2":"2 45700  53.0533  80.1762 0001443  75.0222 285.0926 15.06382502100129","LAUNCH_DATE":"2020-06-04","INCLINATION":"53.0533","MEAN_MOTION":"15.06382502","ELEMENT_SET_NO":"999","REF_FRAME":"TEME","TLE_LINE1":"1 45700U 20035AV  22076.51511749  .00000371  00000-0  43827-4 0  9995"},{"EPOCH":"2022-03-17T11:28:40.407744","MEAN_MOTION_DOT":"0.00016404","GP_ID":"198965062","REV_AT_EPOCH":"10011","PERIOD":"95.593","EPHEMERIS_TYPE":"0","NORAD_CAT_ID":"45701","SEMIMAJOR_AXIS":"6925.369","APOAPSIS":"548.478","SITE":"AFETR","OBJECT_NAME":"STARLINK-1403","MEAN_MOTION_DDOT":"0.0000000000000","RA_OF_ASC_NODE":"80.3254","COUNTRY_CODE":"US","ARG_OF_PERICENTER":"44.0084","MEAN_ANOMALY":"316.1048","FILE":"3363104","PERIAPSIS":"545.989","BSTAR":"0.00111780000000","ECCENTRICITY":"0.00017970","TIME_SYSTEM":"UTC","RCS_SIZE":"LARGE","LAUNCH_DATE":"2020-06-04","TLE_LINE2":"2 45701  53.0536  80.3254 0001797  44.0084 316.1048 15.06393487100119","MEAN_MOTION":"15.06393487","INCLINATION":"53.0536","REF_FRAME":"TEME","TLE_LINE1":"1 45701U 20035AW  22076.47824546  .00016404  00000-0  11178-2 0  9999","ELEMENT_SET_NO":"999","CLASSIFICATION_TYPE":"U","MEAN_ELEMENT_THEORY":"SGP4","OBJECT_ID":"2020-035AW","DECAY_DATE":null,"CENTER_NAME":"EARTH","OBJECT_TYPE":"PAYLOAD"},{"CLASSIFICATION_TYPE":"U","MEAN_ELEMENT_THEORY":"SGP4","OBJECT_ID":"2020-035AX","DECAY_DATE":null,"CENTER_NAME":"EARTH","OBJECT_TYPE":"PAYLOAD","RCS_SIZE":"LARGE","TIME_SYSTEM":"UTC","LAUNCH_DATE":"2020-06-04","TLE_LINE2":"2 45702  53.0529  78.9266 0001713  59.0731 301.0426 15.06385251100169","TLE_LINE1":"1 45702U 20035AX  22076.79156093  .00004268  00000-0  30537-3 0  9996","REF_FRAME":"TEME","ELEMENT_SET_NO":"999","MEAN_MOTION":"15.06385251","INCLINATION":"53.0529","SITE":"AFETR","OBJECT_NAME":"STARLINK-1405","MEAN_MOTION_DDOT":"0.0000000000000","MEAN_ANOMALY":"301.0426","FILE":"3363151","COUNTRY_CODE":"US","ARG_OF_PERICENTER":"59.0731","RA_OF_ASC_NODE":"78.9266","PERIAPSIS":"546.072","BSTAR":"0.00030537000000","ECCENTRICITY":"0.00017130","GP_ID":"198989467","EPOCH":"2022-03-17T18:59:50.864352","MEAN_MOTION_DOT":"0.00004268","REV_AT_EPOCH":"10016","EPHEMERIS_TYPE":"0","PERIOD":"95.593","APOAPSIS":"548.445","SEMIMAJOR_AXIS":"6925.394","NORAD_CAT_ID":"45702"},{"COUNTRY_CODE":"US","ARG_OF_PERICENTER":"63.9900","RA_OF_ASC_NODE":"80.7421","MEAN_ANOMALY":"296.1255","FILE":"3363104","PERIAPSIS":"546.107","ECCENTRICITY":"0.00016070","BSTAR":"0.00010951000000","SITE":"AFETR","OBJECT_NAME":"STARLINK-1407","MEAN_MOTION_DDOT":"0.0000000000000","PERIOD":"95.592","EPHEMERIS_TYPE":"0","SEMIMAJOR_AXIS":"6925.355","NORAD_CAT_ID":"45703","APOAPSIS":"548.333","EPOCH":"2022-03-17T09:21:16.928928","MEAN_MOTION_DOT":"0.00001350","GP_ID":"198963562","REV_AT_EPOCH":"10010","CENTER_NAME":"EARTH","OBJECT_TYPE":"PAYLOAD","CLASSIFICATION_TYPE":"U","MEAN_ELEMENT_THEORY":"SGP4","OBJECT_ID":"2020-035AY","DECAY_DATE":null,"MEAN_MOTION":"15.06397777","INCLINATION":"53.0549","REF_FRAME":"TEME","TLE_LINE1":"1 45703U 20035AY  22076.38977927  .00001350  00000-0  10951-3 0  9996","ELEMENT_SET_NO":"999","TIME_SYSTEM":"UTC","RCS_SIZE":"LARGE","LAUNCH_DATE":"2020-06-04","TLE_LINE2":"2 45703  53.0549  80.7421 0001607  63.9900 296.1255 15.06397777100104"},{"OBJECT_TYPE":"PAYLOAD","CENTER_NAME":"EARTH","DECAY_DATE":null,"OBJECT_ID":"2020-035AZ","CLASSIFICATION_TYPE":"U","MEAN_ELEMENT_THEORY":"SGP4","MEAN_MOTION":"15.06392585","INCLINATION":"53.0551","TLE_LINE1":"1 45704U 20035AZ  22076.87997106 -.00000058  00000-0  15012-4 0  9991","REF_FRAME":"TEME","ELEMENT_SET_NO":"999","LAUNCH_DATE":"2020-06-04","TLE_LINE2":"2 45704  53.0551 108.5396 0001671  55.5109 304.6037 15.06392585 99761","TIME_SYSTEM":"UTC","RCS_SIZE":"LARGE","PERIAPSIS":"546.079","BSTAR":"0.00001501200000","ECCENTRICITY":"0.00016710","COUNTRY_CODE":"US","ARG_OF_PERICENTER":"55.5109","RA_OF_ASC_NODE":"108.5396","MEAN_ANOMALY":"304.6037","FILE":"3363151","OBJECT_NAME":"STARLINK-1409","MEAN_MOTION_DDOT":"0.0000000000000","SITE":"AFETR","NORAD_CAT_ID":"45704","SEMIMAJOR_AXIS":"6925.371","APOAPSIS":"548.394","PERIOD":"95.593","EPHEMERIS_TYPE":"0","REV_AT_EPOCH":"9976","EPOCH":"2022-03-17T21:07:09.499584","MEAN_MOTION_DOT":"-0.00000058","GP_ID":"198990469"},{"PERIAPSIS":"545.894","BSTAR":"-0.00004379200000","ECCENTRICITY":"0.00019460","MEAN_ANOMALY":"306.6936","FILE":"3363104","ARG_OF_PERICENTER":"53.4232","COUNTRY_CODE":"US","RA_OF_ASC_NODE":"110.7978","OBJECT_NAME":"STARLINK-1410","MEAN_MOTION_DDOT":"0.0000000000000","SITE":"AFETR","APOAPSIS":"548.590","NORAD_CAT_ID":"45705","SEMIMAJOR_AXIS":"6925.377","EPHEMERIS_TYPE":"0","PERIOD":"95.593","REV_AT_EPOCH":"9967","GP_ID":"198964563","EPOCH":"2022-03-17T09:01:23.307744","MEAN_MOTION_DOT":"-0.00000934","OBJECT_TYPE":"PAYLOAD","CENTER_NAME":"EARTH","OBJECT_ID":"2020-035BA","DECAY_DATE":null,"CLASSIFICATION_TYPE":"U","MEAN_ELEMENT_THEORY":"SGP4","TLE_LINE1":"1 45705U 20035BA  22076.37596421 -.00000934  00000-0 -43792-4 0  9992","REF_FRAME":"TEME","ELEMENT_SET_NO":"999","MEAN_MOTION":"15.06390713","INCLINATION":"53.0533","LAUNCH_DATE":"2020-06-04","TLE_LINE2":"2 45705  53.0533 110.7978 0001946  53.4232 306.6936 15.06390713 99673","RCS_SIZE":"LARGE","TIME_SYSTEM":"UTC"},{"MEAN_MOTION_DOT":"-0.00000074","EPOCH":"2022-03-17T23:09:18.641376","GP_ID":"198989968","REV_AT_EPOCH":"10018","PERIOD":"95.593","EPHEMERIS_TYPE":"0","SEMIMAJOR_AXIS":"6925.409","NORAD_CAT_ID":"45706","APOAPSIS":"548.531","SITE":"AFETR","MEAN_MOTION_DDOT":"0.0000000000000","OBJECT_NAME":"STARLINK-1411","COUNTRY_CODE":"US","ARG_OF_PERICENTER":"55.0440","RA_OF_ASC_NODE":"78.1476","FILE":"3363151","MEAN_ANOMALY":"305.0719","BSTAR":"0.00001392900000","ECCENTRICITY":"0.00018160","PERIAPSIS":"546.016","TIME_SYSTEM":"UTC","RCS_SIZE":"LARGE","TLE_LINE2":"2 45706  53.0543  78.1476 0001816  55.0440 305.0719 15.06380407100180","LAUNCH_DATE":"2020-06-04","MEAN_MOTION":"15.06380407","INCLINATION":"53.0543","ELEMENT_SET_NO":"999","REF_FRAME":"TEME","TLE_LINE1":"1 45706U 20035BB  22076.96479909 -.00000074  00000-0  13929-4 0  9992","MEAN_ELEMENT_THEORY":"SGP4","CLASSIFICATION_TYPE":"U","OBJECT_ID":"2020-035BB","DECAY_DATE":null,"CENTER_NAME":"EARTH","OBJECT_TYPE":"PAYLOAD"},{"DECAY_DATE":null,"OBJECT_ID":"2020-035BC","CLASSIFICATION_TYPE":"U","MEAN_ELEMENT_THEORY":"SGP4","OBJECT_TYPE":"PAYLOAD","CENTER_NAME":"EARTH","LAUNCH_DATE":"2020-06-04","TLE_LINE2":"2 45707  53.0548  78.1724 0001595  57.0378 303.0764 15.06397416100195","TIME_SYSTEM":"UTC","RCS_SIZE":"LARGE","INCLINATION":"53.0548","MEAN_MOTION":"15.06397416","REF_FRAME":"TEME","TLE_LINE1":"1 45707U 20035BC  22076.96109446  .00002066  00000-0  15756-3 0  9990","ELEMENT_SET_NO":"999","OBJECT_NAME":"STARLINK-1412","MEAN_MOTION_DDOT":"0.0000000000000","SITE":"AFETR","PERIAPSIS":"546.117","ECCENTRICITY":"0.00015950","BSTAR":"0.00015756000000","RA_OF_ASC_NODE":"78.1724","COUNTRY_CODE":"US","ARG_OF_PERICENTER":"57.0378","MEAN_ANOMALY":"303.0764","FILE":"3363151","REV_AT_EPOCH":"10019","EPOCH":"2022-03-17T23:03:58.561344","MEAN_MOTION_DOT":"0.00002066","GP_ID":"198990219","NORAD_CAT_ID":"45707","SEMIMAJOR_AXIS":"6925.356","APOAPSIS":"548.326","PERIOD":"95.592","EPHEMERIS_TYPE":"0"},{"SITE":"AFETR","MEAN_MOTION_DDOT":"0.0000000000000","OBJECT_NAME":"STARLINK-1418","FILE":"3363104","MEAN_ANOMALY":"299.5658","RA_OF_ASC_NODE":"80.6631","COUNTRY_CODE":"US","ARG_OF_PERICENTER":"60.5486","BSTAR":"0.00012547000000","ECCENTRICITY":"0.00015560","PERIAPSIS":"546.136","GP_ID":"198964314","MEAN_MOTION_DOT":"0.00001588","EPOCH":"2022-03-17T09:42:30.702528","REV_AT_EPOCH":"10011","EPHEMERIS_TYPE":"0","PERIOD":"95.592","APOAPSIS":"548.291","SEMIMAJOR_AXIS":"6925.348","NORAD_CAT_ID":"45708","MEAN_ELEMENT_THEORY":"SGP4","CLASSIFICATION_TYPE":"U","OBJECT_ID":"2020-035BD","DECAY_DATE":null,"CENTER_NAME":"EARTH","OBJECT_TYPE":"PAYLOAD","RCS_SIZE":"LARGE","TIME_SYSTEM":"UTC","TLE_LINE2":"2 45708  53.0537  80.6631 0001556  60.5486 299.5658 15.06400124100119","LAUNCH_DATE":"2020-06-04","ELEMENT_SET_NO":"999","REF_FRAME":"TEME","TLE_LINE1":"1 45708U 20035BD  22076.40452202  .00001588  00000-0  12547-3 0  9994","INCLINATION":"53.0537","MEAN_MOTION":"15.06400124"},{"MEAN_MOTION":"15.06390587","INCLINATION":"53.0545","TLE_LINE1":"1 45709U 20035BE  22076.44137400  .00001975  00000-0  15152-3 0  9994","REF_FRAME":"TEME","ELEMENT_SET_NO":"999","LAUNCH_DATE":"2020-06-04","TLE_LINE2":"2 45709  53.0545  80.5051 0001772  55.0863 305.0292 15.06390587100075","TIME_SYSTEM":"UTC","RCS_SIZE":"LARGE","OBJECT_TYPE":"PAYLOAD","CENTER_NAME":"EARTH","DECAY_DATE":null,"OBJECT_ID":"2020-035BE","CLASSIFICATION_TYPE":"U","MEAN_ELEMENT_THEORY":"SGP4","SEMIMAJOR_AXIS":"6925.377","NORAD_CAT_ID":"45709","APOAPSIS":"548.470","PERIOD":"95.593","EPHEMERIS_TYPE":"0","REV_AT_EPOCH":"10007","EPOCH":"2022-03-17T10:35:34.713600","MEAN_MOTION_DOT":"0.00001975","GP_ID":"198965063","PERIAPSIS":"546.015","BSTAR":"0.00015152000000","ECCENTRICITY":"0.00017720","COUNTRY_CODE":"US","ARG_OF_PERICENTER":"55.0863","RA_OF_ASC_NODE":"80.5051","MEAN_ANOMALY":"305.0292","FILE":"3363104","OBJECT_NAME":"STARLINK-1421","MEAN_MOTION_DDOT":"0.0000000000000","SITE":"AFETR"}];
